{
    "links": {
        "self": "http://www.neowsapp.com/rest/v1/neo/3843773?api_key=iIulBulltgU6a56xZRHN4H3l9WmuAYTsLGpBGhQ2"
    },
    "id": "3843773",
    "neo_reference_id": "3843773",
    "name": "(2019 RV)",
    "designation": "2019 RV",
    "nasa_jpl_url": "http://ssd.jpl.nasa.gov/sbdb.cgi?sstr=3843773",
    "absolute_magnitude_h": 23.6,
    "estimated_diameter": {
        "kilometers": {
            "estimated_diameter_min": 0.0506471459,
            "estimated_diameter_max": 0.1132504611
        },
        "meters": {
            "estimated_diameter_min": 50.6471458835,
            "estimated_diameter_max": 113.2504610618
        },
        "miles": {
            "estimated_diameter_min": 0.0314706677,
            "estimated_diameter_max": 0.0703705522
        },
        "feet": {
            "estimated_diameter_min": 166.1651821003,
            "estimated_diameter_max": 371.5566426699
        }
    },
    "is_potentially_hazardous_asteroid": false,
    "close_approach_data": [
        {
            "close_approach_date": "1917-05-01",
            "close_approach_date_full": "1917-May-01 12:13",
            "epoch_date_close_approach": -1662119220000,
            "relative_velocity": {
                "kilometers_per_second": "13.3067211612",
                "kilometers_per_hour": "47904.1961804705",
                "miles_per_hour": "29765.8045655818"
            },
            "miss_distance": {
                "astronomical": "0.0864363721",
                "lunar": "33.6237487469",
                "kilometers": "12930697.156687427",
                "miles": "8034762.6362714126"
            },
            "orbiting_body": "Venus"
        },
        {
            "close_approach_date": "2019-09-20",
            "close_approach_date_full": "2019-Sep-20 10:43",
            "epoch_date_close_approach": 1568976180000,
            "relative_velocity": {
                "kilometers_per_second": "17.1882495266",
                "kilometers_per_hour": "61877.6982955818",
                "miles_per_hour": "38448.3953659408"
            },
            "miss_distance": {
                "astronomical": "0.058814995",
                "lunar": "22.879033055",
                "kilometers": "8798597.97606065",
                "miles": "5467195.26511097"
            },
            "orbiting_body": "Earth"
        },
        {
            "close_approach_date": "2077-03-07",
            "close_approach_date_full": "2077-Mar-07 15:29",
            "epoch_date_close_approach": 3382356540000,
            "relative_velocity": {
                "kilometers_per_second": "21.6056662102",
                "kilometers_per_hour": "77780.3983568377",
                "miles_per_hour": "48329.7147456695"
            },
            "miss_distance": {
                "astronomical": "0.1595645212",
                "lunar": "62.0705987468",
                "kilometers": "23870512.499089844",
                "miles": "14832448.6771500872"
            },
            "orbiting_body": "Earth"
        }
    ],
    "orbital_data": {
        "orbit_id": "8",
        "orbit_determination_date": "2020-09-11 07:44:00",
        "first_observation_date": "2019-09-03",
        "last_observation_date": "2019-09-20",
        "data_arc_in_days": 17,
        "observations_used": 62,
        "orbit_uncertainty": "8",
        "minimum_orbit_intersection": ".0331692",
        "jupiter_tisserand_invariant": "3.835",
        "epoch_osculation": "2458733.5",
        "eccentricity": ".6159458211546982",
        "semi_major_axis": "1.785037593560516",
        "inclination": "4.643810359896756",
        "ascending_node_longitude": "312.5387177360893",
        "orbital_period": "871.1029355752247",
        "perihelion_distance": ".6855511472028775",
        "perihelion_argument": "125.9501175445211",
        "aphelion_distance": "2.884524039918154",
        "perihelion_time": "2458795.640392013941",
        "mean_anomaly": "334.3192908536732",
        "mean_motion": ".413269184728757",
        "equinox": "J2000",
        "orbit_class": {
            "orbit_class_type": "APO",
            "orbit_class_description": "Near-Earth asteroid orbits which cross the Earth’s orbit similar to that of 1862 Apollo",
            "orbit_class_range": "a (semi-major axis) > 1.0 AU; q (perihelion) < 1.017 AU"
        }
    },
    "is_sentry_object": false
}